CELESTIS-17 & SHERPA-FX1
1 47486U 21006CB  26068.64311433  .00007207  00000+0  24301-3 0  9993
2 47486  97.2397 112.1052 0006630 178.1385 181.9882 15.30994801284065
STARLINK-36512          
1 67504U 26012M   26068.02805500  .00037528  00000+0  13655-2 0  9991
2 67504  43.0007 317.8769 0001212 256.6036 103.4681 15.27601615  7669
